[{"OBJECT_NAME":"STARLINK-4550","OBJECT_ID":"2022-101AV","EPOCH":"2026-03-09T22:27:46.528416","MEAN_MOTION":15.0882294,"ECCENTRICITY":0.00014577,"INCLINATION":53.2173,"RA_OF_ASC_NODE":52.9187,"ARG_OF_PERICENTER":100.627,"MEAN_ANOMALY":259.4887,"EPHEMERIS_TYPE":0,"CLASSIFICATION_TYPE":"U","NORAD_CAT_ID":53570,"ELEMENT_SET_NO":999,"REV_AT_EPOCH":19717,"BSTAR":-7.0113402e-5,"MEAN_MOTION_DOT":-1.403e-5,"MEAN_MOTION_DDOT":0},{"OBJECT_NAME":"JILIN-1 KUANFU 02A","OBJECT_ID":"2023-127A","EPOCH":"2026-03-09T22:42:00.221760","MEAN_MOTION":15.09948681,"ECCENTRICITY":0.0009702,"INCLINATION":97.5529,"RA_OF_ASC_NODE":164.1218,"ARG_OF_PERICENTER":318.2814,"MEAN_ANOMALY":41.7675,"EPHEMERIS_TYPE":0,"CLASSIFICATION_TYPE":"U","NORAD_CAT_ID":57696,"ELEMENT_SET_NO":999,"REV_AT_EPOCH":14065,"BSTAR":0.00045097028,"MEAN_MOTION_DOT":7.263e-5,"MEAN_MOTION_DDOT":0}]
